#dP2023  3 30  0  0  0.00000000      96 __u+U IGS14 FIT  IAC
## 2255 345600.00000000   900.00000000 60033 0.0000000000000
+  119   C06C07C08C09C10C11C12C13C14C16C19C20C21C22C23C24C25
+        C26C27C28C29C30C32C33C34C35C36C37C38C39C40C41C42C43
+        C44C45C46E01E02E03E04E05E07E08E09E10E11E12E13E14E15
+        E18E19E21E25E26E27E30E31E33E34E36G01G02G03G04G05G06
+        G07G08G09G10G11G12G13G14G15G16G17G18G19G20G21G22G23
+        G24G25G26G27G28G29G30G31G32J02J03J04R01R02R03R04R05
+        R07R08R09R11R12R13R14R15R16R17R18R19R20R21R22R24R25
++         7  7  7  7  7  7  7  7  7  7  6  6  6  6  6  6  6
++         7  6  6  6  6  6  6  6  6  6  6  6  6  6  6  6  6
++         6  6  6  4  4  4  4  4  4  4  4  4  4  4  4  5  4
++         4  4  4  5  4  4  4  4  4  4  4  4  3  3  3  3  3
++         4  4  3  4  3  3  4  4  4  3  4  4  4  4  4  4  4
++         4  3  3  3  5  3  3  3  3  9  9 10  8  7  7  7  7
++         7  7  6  6  7  8  7  7  7  7  6  7  7  7  7  7  8
%c M  cc GPS ccc cccc cccc cccc cccc ccccc ccccc ccccc ccccc
%c cc cc ccc ccc cccc cccc cccc cccc ccccc ccccc ccccc ccccc
%f  1.2500000  1.025000000  0.00000000000  0.000000000000000
%f  0.0000000  0.000000000  0.00000000000  0.000000000000000
%i    0    0    0    0      0      0      0      0         0
%i    0    0    0    0      0      0      0      0         0
/* INFORMATION & ANALYSIS CENTER (IAC)            FINAL DATA
/* S/V CLOCKS ARE ALIGNED TO GNSS TIME                      
/* G:C1WC2W R:C1PC2P E:C1XC5X C:C2IC6I J:C1CC2S             
/* PCV:IGS20_2247 OL/AL:FES2004  NONE     YN ORB:CoN CLK:CoN
*  2023 03 30  0  0  0.00000000
PC06 -16485.905193  25513.669562  29158.383095   -197.083609
PC07 -11163.688636  40402.226834   5394.188214    -93.583818
PC08    688.697677  26410.793801 -32798.525998    512.706124
PC09  -5973.688504  25407.561411  33429.394825    825.892120
PC10  -5521.859679  42060.416080  -1181.017148    -20.776953
PC11  14367.946016 -17665.992888  16186.240325    733.571535
PC12  25669.605066 -10937.349457   -399.397706    538.003146
PC13   6449.234739  29933.663277 -28707.320834    240.979436
PC14   6717.980158 -26290.078151   6401.303314     55.469312
PC16 -19177.427208  24921.915034  28167.978992    124.599528
PC19   -381.833707  27755.447805   3034.491781   -898.014821
PC20 -11044.056457  21929.658021 -13274.832408    653.730029
PC21  15877.236757  -2254.176838  22857.549206   -908.960726
PC22  10990.270604  17903.843899  18389.738678   -561.349935
PC23 -20530.738238 -18386.182698  -4391.001831   -896.137740
PC24  14095.996336  -9561.065716 -22117.779073   -234.189994
PC25  -6154.935034 -20061.735016 -18416.055797     96.675037
PC26  24064.764751   4615.143160 -13339.232122    -98.922916
PC27 -26047.717948   5188.690478   8515.625815    117.925955
PC28 -16956.408212  -8108.368333  20628.442497     86.614589
PC29  -3015.094371  17960.941827 -21149.731905    100.170788
PC30 -20861.210209  16649.644057  -8109.322327      0.656980
PC32 -15852.337089   2351.927988 -22825.410888   -589.157902
PC33    303.508941 -27742.708531  -2885.943811   -871.550146
PC34  20058.872320 -17086.722059   9216.377435    137.502991
PC35  16485.880746   8244.081417 -20977.906526    655.541256
PC36   4936.653527  20018.739306  18819.913559   -533.253983
PC37 -24273.929121  -6309.482452  12267.726982   -795.766985
PC38  -8285.560571  22818.321447 -34414.621257     68.298401
PC39 -24344.042325  25030.074377  23522.237584     -2.358714
PC40 -16616.574765  38058.752285   7956.655810    -18.910938
PC41 -10747.879364 -18429.574924 -17924.892863   -785.147467
PC42  11696.147991 -20879.306413  14379.570006   -762.266547
PC43   3945.970270 -18247.616720  20737.836739     14.179125
PC44  25868.562527  -5942.128537  -8692.573390     59.793927
PC45  20766.564712  18192.779722   3978.852312    -78.486546
PC46 -12636.444989  10671.535284  22474.027955    -43.343684
PE01  13886.418528  -9794.323252 -24242.878201    -10.202485
PE02 -13635.757002  10262.153827  24174.027849     29.280120
PE03 -21209.278494  19003.329453  -8094.921698   -664.079967
PE04  10373.293026 -25823.657274 -10073.124330    -89.244614
PE05 -19824.499743    804.387662 -21958.627443    -81.719104
PE07   6719.280290  17742.083749  22733.510013    -33.652516
PE08 -10534.161859  25824.773617   9936.365824    -59.084353
PE09  -6494.609826 -17768.428904 -22754.711835   -886.568676
PE10  -6309.571713 -16190.293903  23955.795432   -522.696927
PE11 -17648.124457 -14344.121966  18924.472931   1425.924729
PE12   5041.501584 -15510.190751  24701.319565   -478.003257
PE13  16910.292607  14505.978180 -19492.674645    -18.120423
PE14   6466.393878  21227.662605 -22941.062027    182.445432
PE15  -5366.267296  15377.762111 -24709.580120    -10.914420
PE18 -13733.798270  -8468.981553  18837.595914   -225.774136
PE19  21839.430225 -16995.961560  10520.495854  -2889.445827
PE21  19288.240922   9965.596153 -20125.173281   -520.379796
PE25 -19297.361798 -10327.046012  19929.969837   -602.289398
PE26  29147.677102   4724.647393  -2122.114767     60.027569
PE27  14145.979379  25649.752859  -4222.116700    -12.364844
PE30    143.249713  25817.962436  14447.437126    -50.995264
PE31   -728.306203 -26071.322703 -14003.057518   -519.897646
PE33  24319.407799  -7160.469820  15297.459330   -447.719946
PE34 -24187.284542   7302.264173 -15425.660727    -37.502119
PE36 -28990.541978  -5157.492984   2937.334326    -33.618034
PG01  16790.055892  13735.549523 -15890.992081    197.990242
PG02 -19718.030000 -11426.006089  14052.330315   -610.558353
PG03  12923.702877  22334.163694   6430.686031   -340.435229
PG04   8871.339692  12661.144282  21597.974275      4.457922
PG05  -3835.012929 -24636.180205   8807.279657   -121.395740
PG06  21018.730395  -6340.129657  15084.287708    584.501580
PG07  25539.359641   7352.044936   4095.706226    212.717323
PG08  -1388.862653  20586.830727 -16565.090346   -115.296163
PG09  16832.420377   1942.650316  20391.980321   -190.696251
PG10 -14076.142664   4504.233261 -21895.771196    -30.626372
PG11   7811.310531 -13510.019866  21498.089825   -145.708640
PG12 -10165.914080 -24172.665533   4234.399967   -357.586644
PG13  10095.572751 -21040.299647 -12666.383108    498.035470
PG14  15692.399704  -1406.910419 -21388.807245      9.845346
PG15  -1870.042547 -20734.413138 -16795.569807     25.984654
PG16  -1209.705177  23852.338465  10808.887751   -512.371142
PG17  21051.788536 -10898.426100 -11654.513061    708.051973
PG18 -26223.222077  -4687.601112   -353.255693   -201.323730
PG19  20318.046975 -16555.934447  -3438.252139    296.699557
PG20   2651.972896 -20173.210333  17212.283779    442.005416
PG21   9464.131130  14589.717533 -19738.698037    154.319855
PG22 -18236.724049  19181.442614    531.134940    454.621289
PG23 -17066.939939  -8267.830107 -18650.970223     13.508320
PG24 -13272.248587 -14631.199621 -18292.873395   -131.529463
PG25 -16111.812204 -16873.346528  12629.269403    431.617023
PG26  -9068.647867  15175.848083  19608.035505    241.952296
PG27 -11185.188041  22488.045286  -8196.906638     70.188287
PG28 -22157.117232   6324.058583  13177.048326     54.948643
PG29 -13950.741629  -6525.792236  21596.090648   -593.192755
PG30  25349.037046  -1540.947970  -8120.481533   -524.785436
PG31 -17818.297664   9175.275201  17481.339888   -212.779194
PG32 -20180.706381  13854.433379  -9880.763023   -437.420219
PJ02 -25989.590948  23974.721665  27963.717763     -1.345121
PJ03 -34835.718587  18013.829009 -10844.719959      1.533018
PJ04 -20665.349882  31136.618815 -14353.711119     94.150553
PR01   3217.586510  19289.925226  16394.030473     25.700072
PR02  10809.666884   1633.835371  23098.290816    -23.041543
PR03  12198.247061 -16115.952367  15648.526787     75.089526
PR04   6948.477812 -24548.124125   -237.354621    181.312941
PR05  -2033.914768 -19740.220046 -16022.954872    110.130685
PR07 -12043.621321  16742.363478 -14932.353618     52.759037
PR08  -6641.348443  24607.604799    595.391180    -70.132978
PR09 -19702.857028 -10853.731692  11966.954006    111.883343
PR11   1491.039054  15156.326203  20473.953474    -26.769807
PR12  15506.427956  19459.773501   5596.958027     26.045275
PR13  19703.209915  12429.035785 -10406.671340    -33.427152
PR14  12063.373217  -3206.155545 -22241.011493     24.481074
PR15  -2274.826072 -15864.941384 -19828.978825     90.136740
PR16 -15515.187579 -19339.287777  -5922.829058     12.945940
PR17  22972.965284  -8841.488799   6634.861959    616.628629
PR18  10829.011270 -11782.033304  19897.493974     73.947694
PR19  -5352.405101  -9358.745519  23115.170373   -227.135800
PR20 -22641.087445   -586.872635  11691.859005    -90.202868
PR21 -22290.000077   9249.068425  -8293.109599   -384.082549
PR22 -10221.033132  11753.741917 -20168.513348     77.046948
PR24  23012.260405   -289.740021 -10979.277793    157.761220
PR25 -23467.892200   7748.672323  -6342.016419     59.125437
EOF
